SZ-21 MODULE            
1 66515U 25246C   25333.81586787  .00027119  00000+0  30963-3 0  9991
2 66515  41.4760  94.8298 0005401 181.8397 178.2423 15.61565337  2421
SHENZHOU-22             
1 66645U 25272A   25333.25988665  .00015582  00000+0  20255-3 0  9997
2 66645  41.4663  98.4914 0010669 292.2705  67.7001 15.58389811261781
CZ-2F R/B               
1 66646U 25272B   25330.47076975  .00449059  75676-5  29319-3 0  9998
2 66646  41.4431 114.9009 0121079 133.7676 227.3272 16.01945612   217
SOYUZ-MS 28             
1 66664U 25275A   25333.83453771  .00008010  00000+0  15237-3 0  9992
2 66664  51.6312 206.3646 0003723 184.1118 175.9840 15.49193835   444
SL-4 R/B                
1 66665U 25275B   25333.34681791  .08397088  12512-4  39285-3 0  9993
2 66665  51.6501 207.6669 0004581  68.9636 291.1882 16.43094745   331
