CCSDS_OMM_VERS = 2.0
CREATION_DATE  = 
ORIGINATOR     = 

OBJECT_NAME    = SZ-21 MODULE
OBJECT_ID      = 2025-246C
CENTER_NAME    = EARTH
REF_FRAME      = TEME
TIME_SYSTEM    = UTC
MEAN_ELEMENT_THEORY = SGP/SGP4

EPOCH          = 2025-11-29T19:34:50.983968
MEAN_MOTION    = 15.61565337
ECCENTRICITY   = .0005401
INCLINATION    = 41.4760
RA_OF_ASC_NODE = 94.8298
ARG_OF_PERICENTER = 181.8397
MEAN_ANOMALY   = 178.2423

EPHEMERIS_TYPE = 0
CLASSIFICATION_TYPE = U
NORAD_CAT_ID   = 66515
ELEMENT_SET_NO = 999
REV_AT_EPOCH   = 242
BSTAR          = .30963E-3
MEAN_MOTION_DOT = .27119E-3
MEAN_MOTION_DDOT = 0

CCSDS_OMM_VERS = 2.0
CREATION_DATE  = 
ORIGINATOR     = 

OBJECT_NAME    = SHENZHOU-22
OBJECT_ID      = 2025-272A
CENTER_NAME    = EARTH
REF_FRAME      = TEME
TIME_SYSTEM    = UTC
MEAN_ELEMENT_THEORY = SGP/SGP4

EPOCH          = 2025-11-29T06:14:14.206560
MEAN_MOTION    = 15.58389811
ECCENTRICITY   = .00106693
INCLINATION    = 41.4663
RA_OF_ASC_NODE = 98.4914
ARG_OF_PERICENTER = 292.2705
MEAN_ANOMALY   = 67.7001

EPHEMERIS_TYPE = 0
CLASSIFICATION_TYPE = U
NORAD_CAT_ID   = 66645
ELEMENT_SET_NO = 999
REV_AT_EPOCH   = 26178
BSTAR          = .20254705E-3
MEAN_MOTION_DOT = .15582E-3
MEAN_MOTION_DDOT = 0

CCSDS_OMM_VERS = 2.0
CREATION_DATE  = 
ORIGINATOR     = 

OBJECT_NAME    = CZ-2F R/B
OBJECT_ID      = 2025-272B
CENTER_NAME    = EARTH
REF_FRAME      = TEME
TIME_SYSTEM    = UTC
MEAN_ELEMENT_THEORY = SGP/SGP4

EPOCH          = 2025-11-26T11:17:54.506400
MEAN_MOTION    = 16.01945612
ECCENTRICITY   = .01210796
INCLINATION    = 41.4431
RA_OF_ASC_NODE = 114.9009
ARG_OF_PERICENTER = 133.7676
MEAN_ANOMALY   = 227.3272

EPHEMERIS_TYPE = 0
CLASSIFICATION_TYPE = U
NORAD_CAT_ID   = 66646
ELEMENT_SET_NO = 999
REV_AT_EPOCH   = 21
BSTAR          = .29319366E-3
MEAN_MOTION_DOT = .449059E-2
MEAN_MOTION_DDOT = .7567612E-5

CCSDS_OMM_VERS = 2.0
CREATION_DATE  = 
ORIGINATOR     = 

OBJECT_NAME    = SOYUZ-MS 28
OBJECT_ID      = 2025-275A
CENTER_NAME    = EARTH
REF_FRAME      = TEME
TIME_SYSTEM    = UTC
MEAN_ELEMENT_THEORY = SGP/SGP4

EPOCH          = 2025-11-29T20:01:44.058144
MEAN_MOTION    = 15.49193835
ECCENTRICITY   = .0003723
INCLINATION    = 51.6312
RA_OF_ASC_NODE = 206.3646
ARG_OF_PERICENTER = 184.1118
MEAN_ANOMALY   = 175.9840

EPHEMERIS_TYPE = 0
CLASSIFICATION_TYPE = U
NORAD_CAT_ID   = 66664
ELEMENT_SET_NO = 999
REV_AT_EPOCH   = 44
BSTAR          = .15237E-3
MEAN_MOTION_DOT = .801E-4
MEAN_MOTION_DDOT = 0

CCSDS_OMM_VERS = 2.0
CREATION_DATE  = 
ORIGINATOR     = 

OBJECT_NAME    = SL-4 R/B
OBJECT_ID      = 2025-275B
CENTER_NAME    = EARTH
REF_FRAME      = TEME
TIME_SYSTEM    = UTC
MEAN_ELEMENT_THEORY = SGP/SGP4

EPOCH          = 2025-11-29T08:19:25.067424
MEAN_MOTION    = 16.43094745
ECCENTRICITY   = .0004581
INCLINATION    = 51.6501
RA_OF_ASC_NODE = 207.6669
ARG_OF_PERICENTER = 68.9636
MEAN_ANOMALY   = 291.1882

EPHEMERIS_TYPE = 0
CLASSIFICATION_TYPE = U
NORAD_CAT_ID   = 66665
ELEMENT_SET_NO = 999
REV_AT_EPOCH   = 33
BSTAR          = .39285E-3
MEAN_MOTION_DOT = .8397088E-1
MEAN_MOTION_DDOT = .12512E-4

